NORAD_CAT_ID,OBJECT_NAME,OBJECT_TYPE,EPOCH,MEAN_MOTION,ECCENTRICITY,INCLINATION,RA_OF_ASC_NODE,ARG_OF_PERICENTER,MEAN_ANOMALY,BSTAR,MEAN_MOTION_DOT,MEAN_MOTION_DDOT,TLE_LINE0,TLE_LINE1,TLE_LINE2,SEMIMAJOR_AXIS,PERIOD,APOGEE,PERIGEE,DECAYED
49771.0,STARLINK-3201,PAYLOAD,2022-11-07 01:12:07,15.08835847,0.0002311,53.2168,209.8041,40.4158,319.7006,0.0001374,1.899e-05,0.0,0 STARLINK-3201,1 49771U 21115AZ  22311.05008692  .00001899  00000-0  13740-3 0  9992,2 49771  53.2168 209.8041 0002311  40.4158 319.7006 15.08835847 51706,6917.893,95.438,541.357,538.159,0.0
49771.0,STARLINK-3201,PAYLOAD,2022-11-08 02:38:17,15.08842325,0.0002105,53.2168,205.0461,46.9248,313.192,0.00029183,4.36e-05,0.0,0 STARLINK-3201,1 49771U 21115AZ  22312.10992438  .00004360  00000-0  29183-3 0  9993,2 49771  53.2168 205.0461 0002105  46.9248 313.1920 15.08842325 52974,6917.873000000001,95.437,541.194,538.2819999999998,0.0
49771.0,STARLINK-3201,PAYLOAD,2022-11-08 10:35:11,15.08863996,0.0002035,53.2167,203.5596,45.2313,314.8844,0.00022385,3.279e-05,0.0,0 STARLINK-3201,1 49771U 21115AZ  22312.44110848  .00003279  00000-0  22385-3 0  9992,2 49771  53.2167 203.5596 0002035  45.2313 314.8844 15.08863996 53029,6917.807,95.436,541.08,538.264,0.0
49771.0,STARLINK-3201,PAYLOAD,2022-11-09 02:29:03,15.08862608,0.0001859,53.2165,200.5865,46.3387,313.7759,0.00022458,3.2899999999999987e-05,0.0,0 STARLINK-3201,1 49771U 21115AZ  22313.10350740  .00003290  00000-0  22458-3 0  9997,2 49771  53.2165 200.5865 0001859  46.3387 313.7759 15.08862608 53122,6917.811,95.436,540.962,538.39,0.0
49771.0,STARLINK-3201,PAYLOAD,2022-11-09 19:58:18,15.08843766,0.0001955,53.2155,197.3151,41.3553,318.7587,-0.00012119,-2.217e-05,0.0,0 STARLINK-3201,1 49771U 21115AZ  22313.83215374 -.00002217  00000-0 -12119-3 0  9993,2 49771  53.2155 197.3151 0001955  41.3553 318.7587 15.08843766 53239,6917.869000000002,95.437,541.086,538.381,0.0
49771.0,STARLINK-3201,PAYLOAD,2022-11-09 21:33:41,15.08844849,0.0001996,53.2155,197.0179,41.5873,318.5271,-9.9515e-05,-1.872e-05,0.0,0 STARLINK-3201,1 49771U 21115AZ  22313.89839291 -.00001872  00000-0 -99515-4 0  9991,2 49771  53.2155 197.0179 0001996  41.5873 318.5271 15.08844849 52137,6917.866,95.437,541.111,538.35,0.0
49771.0,STARLINK-3201,PAYLOAD,2022-11-10 03:55:13,15.08837009,0.0002148,53.2153,195.8285,41.843,318.2726,-0.00022217,-3.822e-05,0.0,0 STARLINK-3201,1 49771U 21115AZ  22314.16335428 -.00003822  00000-0 -22217-3 0  9996,2 49771  53.2153 195.8285 0002148  41.8430 318.2726 15.08837009 52177,6917.89,95.438,541.24,538.269,0.0
49771.0,STARLINK-3201,PAYLOAD,2022-11-10 19:49:06,15.08818148,0.0001825,53.2161,192.8534,45.7334,314.3808,-0.00026416,-4.487e-05,0.0,0 STARLINK-3201,1 49771U 21115AZ  22314.82577000 -.00004487  00000-0 -26416-3 0  9996,2 49771  53.2161 192.8534 0001825  45.7334 314.3808 15.08818148 52279,6917.946999999999,95.439,541.075,538.55,0.0
49771.0,STARLINK-3201,PAYLOAD,2022-11-11 03:46:03,15.088076199999998,0.0001882,53.2165,191.3676,42.2896,317.8241,-0.00011866,-2.174e-05,0.0,0 STARLINK-3201,1 49771U 21115AZ  22315.15698787 -.00002174  00000-0 -11866-3 0  9993,2 49771  53.2165 191.3676 0001882  42.2896 317.8241 15.08807620 53433,6917.979,95.44,541.146,538.5419999999998,0.0
49771.0,STARLINK-3201,PAYLOAD,2022-11-11 19:39:54,15.08835667,0.0001829,53.2169,188.395,45.8332,314.281,4.862e-05,4.86e-06,0.0,0 STARLINK-3201,1 49771U 21115AZ  22315.81937660  .00000486  00000-0  48620-4 0  9993,2 49771  53.2169 188.3950 0001829  45.8332 314.2810 15.08835667 53539,6917.894,95.438,541.024,538.493,0.0
49771.0,STARLINK-3201,PAYLOAD,2022-11-11 21:15:17,15.08830762,0.000206,53.2167,188.0973,43.9715,316.144,0.00013864,1.918e-05,0.0,0 STARLINK-3201,1 49771U 21115AZ  22315.88561719  .00001918  00000-0  13864-3 0  9990,2 49771  53.2167 188.0973 0002060  43.9715 316.1440 15.08830762 52430,6917.909000000002,95.438,541.1990000000002,538.349,0.0
49771.0,STARLINK-3201,PAYLOAD,2022-11-12 00:26:03,15.08839741,0.0001988,53.2163,187.5024,42.75,317.3646,6.5776e-05,7.59e-06,0.0,0 STARLINK-3201,1 49771U 21115AZ  22316.01809450  .00000759  00000-0  65776-4 0  9995,2 49771  53.2163 187.5024 0001988  42.7500 317.3646 15.08839741 52453,6917.880999999999,95.438,541.121,538.371,0.0
49771.0,STARLINK-3201,PAYLOAD,2022-11-12 17:55:17,15.088399,0.0001994,53.2163,184.2314,42.8872,317.2276,0.0003859,5.859e-05,0.0,0 STARLINK-3201,1 49771U 21115AZ  22316.74672748  .00005859  00000-0  38590-3 0  9992,2 49771  53.2163 184.2314 0001994  42.8872 317.2276 15.08839900 53679,6917.880999999999,95.438,541.125,538.366,0.0
49771.0,STARLINK-3201,PAYLOAD,2022-11-12 21:06:03,15.08840074,0.0002002,53.2164,183.6367,42.8013,317.3135,0.00038174,5.793e-05,0.0,0 STARLINK-3201,1 49771U 21115AZ  22316.87920871  .00005793  00000-0  38174-3 0  9994,2 49771  53.2164 183.6367 0002002  42.8013 317.3135 15.08840074 52587,6917.88,95.438,541.13,538.36,0.0
49771.0,STARLINK-3201,PAYLOAD,2022-11-13 03:27:36,15.08836423,0.000204,53.2163,182.447,44.6209,315.4947,0.00033192,4.998e-05,0.0,0 STARLINK-3201,1 49771U 21115AZ  22317.14417524  .00004998  00000-0  33192-3 0  9992,2 49771  53.2163 182.4470 0002040  44.6209 315.4947 15.08836423 53738,6917.891,95.438,541.168,538.345,0.0
49771.0,STARLINK-3201,PAYLOAD,2022-11-13 08:13:46,15.08836951,0.0002088,53.2163,181.555,44.3088,315.8071,0.00029918,4.476e-05,0.0,0 STARLINK-3201,1 49771U 21115AZ  22317.34289573  .00004476  00000-0  29918-3 0  9997,2 49771  53.2163 181.5550 0002088  44.3088 315.8071 15.08836951 52659,6917.89,95.438,541.1990000000002,538.31,0.0
49771.0,STARLINK-3201,PAYLOAD,2022-11-13 17:46:05,15.08842868,0.0002083,53.2162,179.7709,45.0254,315.0906,1.8145e-05,1e-08,0.0,0 STARLINK-3201,1 49771U 21115AZ  22317.74034001  .00000001  00000-0  18145-4 0  9996,2 49771  53.2162 179.7709 0002083  45.0254 315.0906 15.08842868 52711,6917.871999999999,95.437,541.178,538.2959999999998,0.0
49771.0,STARLINK-3201,PAYLOAD,2022-11-14 08:04:34,15.08837449,0.0002045,53.2164,177.0946,44.3693,315.7463,-5.5538e-05,-1.172e-05,0.0,0 STARLINK-3201,1 49771U 21115AZ  22318.33650517 -.00001172  00000-0 -55538-4 0  9997,2 49771  53.2164 177.0946 0002045  44.3693 315.7463 15.08837449 53911,6917.888000000001,95.438,541.168,538.3380000000002,0.0
49771.0,STARLINK-3201,PAYLOAD,2022-11-14 17:36:52,15.08847901,0.0002016,53.2164,175.3102,42.4167,317.698,-0.00012327,-2.25e-05,0.0,0 STARLINK-3201,1 49771U 21115AZ  22318.73393899 -.00002250  00000-0 -12327-3 0  9994,2 49771  53.2164 175.3102 0002016  42.4167 317.6980 15.08847901 52861,6917.856,95.437,541.116,538.327,0.0
49771.0,STARLINK-3201,PAYLOAD,2022-11-15 01:33:47,15.08849368,0.0002066,53.2162,173.8235,43.8218,316.2938,-9.1818e-05,-1.75e-05,0.0,0 STARLINK-3201,1 49771U 21115AZ  22319.06513538 -.00001750  00000-0 -91818-4 0  9992,2 49771  53.2162 173.8235 0002066  43.8218 316.2938 15.08849368 54023,6917.852,95.437,541.146,538.288,0.0
49771.0,STARLINK-3201,PAYLOAD,2022-11-15 07:55:20,15.08845721,0.0002071,53.2162,172.634,44.9329,315.183,7.0015e-06,-1.77e-06,0.0,0 STARLINK-3201,1 49771U 21115AZ  22319.33009403 -.00000177  00000-0  70015-5 0  9991,2 49771  53.2162 172.6340 0002071  44.9329 315.1830 15.08845721 52956,6917.863,95.437,541.161,538.295,0.0
49771.0,STARLINK-3201,PAYLOAD,2022-11-15 20:38:24,15.0884065,0.0002097,53.2161,170.2548,44.9868,315.1294,0.00017616,2.517e-05,0.0,0 STARLINK-3201,1 49771U 21115AZ  22319.86001063  .00002517  00000-0  17616-3 0  9998,2 49771  53.2161 170.2548 0002097  44.9868 315.1294 15.08840650 53035,6917.878000000002,95.438,541.194,538.293,0.0
49771.0,STARLINK-3201,PAYLOAD,2022-11-16 01:24:34,15.08843255,0.0002106,53.216,169.3627,45.5259,314.5905,0.00019224,2.773e-05,0.0,0 STARLINK-3201,1 49771U 21115AZ  22320.05872889  .00002773  00000-0  19224-3 0  9994,2 49771  53.2160 169.3627 0002106  45.5259 314.5905 15.08843255 53062,6917.87,95.437,541.192,538.279,0.0
49771.0,STARLINK-3201,PAYLOAD,2022-11-16 20:29:12,15.08841143,0.0002134,53.2159,165.7941,46.896,313.2211,8.1029e-05,1.002e-05,0.0,0 STARLINK-3201,1 49771U 21115AZ  22320.85361234  .00001002  00000-0  81029-4 0  9996,2 49771  53.2159 165.7941 0002134  46.8960 313.2211 15.08841143 54299,6917.877,95.437,541.2180000000002,538.266,0.0
49771.0,STARLINK-3201,PAYLOAD,2022-11-17 01:15:21,15.08842204,0.0002117,53.2159,164.9021,46.5232,313.5936,4.4339e-05,4.18e-06,0.0,0 STARLINK-3201,1 49771U 21115AZ  22321.05233183  .00000418  00000-0  44339-4 0  9993,2 49771  53.2159 164.9021 0002117  46.5232 313.5936 15.08842204 53216,6917.874,95.437,541.203,538.274,0.0
49771.0,STARLINK-3201,PAYLOAD,2022-11-17 15:33:49,15.08847775,0.000214,53.2158,162.2258,47.4187,312.6985,3.6549e-05,2.94e-06,0.0,0 STARLINK-3201,1 49771U 21115AZ  22321.64848657  .00000294  00000-0  36549-4 0  9992,2 49771  53.2158 162.2258 0002140  47.4187 312.6985 15.08847775 53305,6917.857,95.437,541.202,538.241,0.0
49771.0,STARLINK-3201,PAYLOAD,2022-11-17 23:30:45,15.08844293,0.000175,53.2158,160.7372,55.4901,304.6256,-3.4568000000000005e-05,-8.38e-06,0.0,0 STARLINK-3201,1 49771U 21115AZ  22321.97968825 -.00000838  00000-0 -34568-4 0  9993,2 49771  53.2158 160.7372 0001750  55.4901 304.6256 15.08844293 54466,6917.8669999999975,95.437,540.943,538.5219999999998,0.0
49771.0,STARLINK-3201,PAYLOAD,2022-11-18 05:52:18,15.08836219,0.0001758,53.2156,159.5479,53.4243,306.6911,-9.0201e-05,-1.723e-05,0.0,0 STARLINK-3201,1 49771U 21115AZ  22322.24465522 -.00001723  00000-0 -90201-4 0  9990,2 49771  53.2156 159.5479 0001758  53.4243 306.6911 15.08836219 54507,6917.892,95.438,540.9730000000002,538.5409999999998,0.0
49771.0,STARLINK-3201,PAYLOAD,2022-11-18 13:49:13,15.08834509,0.0001709,53.2157,158.0608,53.75899999999999,306.356,-5.6452e-05,-1.186e-05,0.0,0 STARLINK-3201,1 49771U 21115AZ  22322.57585632 -.00001186  00000-0 -56452-4 0  9994,2 49771  53.2157 158.0608 0001709  53.7590 306.3560 15.08834509 53449,6917.897,95.438,540.944,538.58,0.0
